NORAD_CAT_ID,OBJECT_NAME,OBJECT_TYPE,EPOCH,MEAN_MOTION,ECCENTRICITY,INCLINATION,RA_OF_ASC_NODE,ARG_OF_PERICENTER,MEAN_ANOMALY,BSTAR,MEAN_MOTION_DOT,MEAN_MOTION_DDOT,TLE_LINE0,TLE_LINE1,TLE_LINE2,SEMIMAJOR_AXIS,PERIOD,APOGEE,PERIGEE,DECAYED
56469.0,STARLINK-5518,PAYLOAD,2023-11-08 19:51:49,14.98355762,0.0003058,69.9986,112.5023,267.9623,92.1186,-0.00037624,-4.582e-05,0.0,0 STARLINK-5518,1 56469U 23064X   23312.82765553 -.00004582  00000-0 -37624-3 0  9993,2 56469  69.9986 112.5023 0003058 267.9623  92.1186 14.98355762 28135,6950.113,96.105,574.104,569.853,0.0
56469.0,STARLINK-5518,PAYLOAD,2023-11-09 03:52:29,14.98352844,0.0003255,69.9988,111.6601,273.2396,86.839,-0.00035374,-4.314e-05,0.0,0 STARLINK-5518,1 56469U 23064X   23313.16145416 -.00004314  00000-0 -35374-3 0  9994,2 56469  69.9988 111.6601 0003255 273.2396  86.8390 14.98352844 28545,6950.122,96.106,574.25,569.725,0.0
56469.0,STARLINK-5518,PAYLOAD,2023-11-09 11:53:10,14.98326183,0.0003102,69.9989,110.8202,268.9987,91.0817,7.6574e-05,8.21e-06,0.0,0 STARLINK-5518,1 56469U 23064X   23313.49526058  .00000821  00000-0  76574-4 0  9990,2 56469  69.9989 110.8202 0003102 268.9987  91.0817 14.98326183 28596,6950.205,96.107,574.226,569.914,0.0
56469.0,STARLINK-5518,PAYLOAD,2023-11-09 13:29:18,14.98327797,0.0003133,69.9991,110.6519,270.4098,89.6702,5.3417e-05,5.44e-06,0.0,0 STARLINK-5518,1 56469U 23064X   23313.56202053  .00000544  00000-0  53417-4 0  9997,2 56469  69.9991 110.6519 0003133 270.4098  89.6702 14.98327797 28243,6950.2,96.107,574.242,569.887,0.0
56469.0,STARLINK-5518,PAYLOAD,2023-11-09 19:53:50,14.98329589,0.0003059,69.999,109.9783,268.9633,91.1176,6.7307e-05,7.1e-06,0.0,0 STARLINK-5518,1 56469U 23064X   23313.82905903  .00000710  00000-0  67307-4 0  9998,2 56469  69.9990 109.9783 0003059 268.9633  91.1176 14.98329589 28288,6950.194,96.107,574.185,569.933,0.0
56469.0,STARLINK-5518,PAYLOAD,2023-11-10 11:55:11,14.9832746,0.0002917,69.9992,108.2951,268.8935,91.189,-0.00010622,-1.36e-05,0.0,0 STARLINK-5518,1 56469U 23064X   23314.49666648 -.00001360  00000-0 -10622-3 0  9993,2 56469  69.9992 108.2951 0002917 268.8935  91.1890 14.98327460 28745,6950.201,96.107,574.093,570.038,0.0
56469.0,STARLINK-5518,PAYLOAD,2023-11-10 13:31:20,14.98323564,0.0003003,69.9992,108.1267,268.9489,91.1326,-6.9444e-05,-9.21e-06,0.0,0 STARLINK-5518,1 56469U 23064X   23314.56342794 -.00000921  00000-0 -69444-4 0  9993,2 56469  69.9992 108.1267 0003003 268.9489  91.1326 14.98323564 28392,6950.213,96.107,574.165,569.991,0.0
56469.0,STARLINK-5518,PAYLOAD,2023-11-10 19:55:52,14.98324378,0.0003,69.9991,107.4533,269.3618,90.7197,-5.2112e-05,-7.15e-06,0.0,0 STARLINK-5518,1 56469U 23064X   23314.83046789 -.00000715  00000-0 -52112-4 0  9993,2 56469  69.9991 107.4533 0003000 269.3618  90.7197 14.98324378 28435,6950.21,96.107,574.16,569.99,0.0
56469.0,STARLINK-5518,PAYLOAD,2023-11-11 11:57:12,14.98330074,0.0003046,69.9991,105.77,269.6305,90.4505,1.4221e-05,7.7e-07,0.0,0 STARLINK-5518,1 56469U 23064X   23315.49806329  .00000077  00000-0  14221-4 0  9998,2 56469  69.9991 105.7700 0003046 269.6305  90.4505 14.98330074 28898,6950.193,96.107,574.175,569.941,0.0
56469.0,STARLINK-5518,PAYLOAD,2023-11-11 13:33:20,14.98330051,0.000305,69.9991,105.6017,269.625,90.456,1.4202e-05,7.6e-07,0.0,0 STARLINK-5518,1 56469U 23064X   23315.56482329  .00000076  00000-0  14202-4 0  9994,2 56469  69.9991 105.6017 0003050 269.6250  90.4560 14.98330051 28540,6950.193,96.107,574.178,569.938,0.0
56469.0,STARLINK-5518,PAYLOAD,2023-11-11 19:57:52,14.9833342,0.0003034,69.9991,104.9283,269.4462,90.6349,4.1128e-05,3.98e-06,0.0,0 STARLINK-5518,1 56469U 23064X   23315.83186018  .00000398  00000-0  41128-4 0  9994,2 56469  69.9991 104.9283 0003034 269.4462  90.6349 14.98333420 28586,6950.182,96.107,574.156,569.939,0.0
56469.0,STARLINK-5518,PAYLOAD,2023-11-12 11:59:13,14.98329459,0.0003069,69.999,103.2447,269.8318,90.2489,0.00010065,1.108e-05,0.0,0 STARLINK-5518,1 56469U 23064X   23316.49946038  .00001108  00000-0  10065-3 0  9998,2 56469  69.9990 103.2447 0003069 269.8318  90.2489 14.98329459 29041,6950.195,96.107,574.193,569.927,0.0
56469.0,STARLINK-5518,PAYLOAD,2023-11-12 13:35:21,14.9832964,0.0003069,69.999,103.0763,269.763,90.3177,0.00010075,1.109e-05,0.0,0 STARLINK-5518,1 56469U 23064X   23316.56622026  .00001109  00000-0  10075-3 0  9996,2 56469  69.9990 103.0763 0003069 269.7630  90.3177 14.98329640 28693,6950.194,96.107,574.192,569.926,0.0
56469.0,STARLINK-5518,PAYLOAD,2023-11-12 19:59:53,14.98333528,0.0003049,69.9992,102.4032,269.9007,90.1802,0.00013327,1.498e-05,0.0,0 STARLINK-5518,1 56469U 23064X   23316.83325656  .00001498  00000-0  13327-3 0  9999,2 56469  69.9992 102.4032 0003049 269.9007  90.1802 14.98333528 28733,6950.182,96.107,574.166,569.928,0.0
56469.0,STARLINK-5518,PAYLOAD,2023-11-13 12:01:13,14.98336935,0.000297,69.9996,100.72,270.7853,89.2965,2.839e-05,2.46e-06,0.0,0 STARLINK-5518,1 56469U 23064X   23317.50085541  .00000246  00000-0  28390-4 0  9997,2 56469  69.9996 100.7200 0002970 270.7853  89.2965 14.98336935 29191,6950.171,96.107,574.101,569.972,0.0
56469.0,STARLINK-5518,PAYLOAD,2023-11-13 16:49:37,14.9833951,0.0002964,69.9996,100.2151,270.9668,89.1152,5.5277e-05,5.67e-06,0.0,0 STARLINK-5518,1 56469U 23064X   23317.70113197  .00000567  00000-0  55277-4 0  9998,2 56469  69.9996 100.2151 0002964 270.9668  89.1152 14.98339510 28862,6950.163,96.106,574.089,569.968,0.0
56469.0,STARLINK-5518,PAYLOAD,2023-11-14 12:03:15,14.98330921,0.0002685,69.9999,98.196,271.1104,88.9747,-0.00013299,-1.679e-05,0.0,0 STARLINK-5518,1 56469U 23064X   23318.50226072 -.00001679  00000-0 -13299-3 0  9998,2 56469  69.9999  98.1960 0002685 271.1104  88.9747 14.98330921 29344,6950.19,96.107,573.921,570.189,0.0
56469.0,STARLINK-5518,PAYLOAD,2023-11-14 13:39:23,14.98329862,0.0002721,69.9998,98.027,269.7233,90.3614,-8.8723e-05,-1.151e-05,0.0,0 STARLINK-5518,1 56469U 23064X   23318.56902004 -.00001151  00000-0 -88723-4 0  9990,2 56469  69.9998  98.0270 0002721 269.7233  90.3614 14.98329862 28995,6950.193,96.107,573.949,570.167,0.0
56469.0,STARLINK-5518,PAYLOAD,2023-11-15 12:05:15,14.98332017,0.0002857,70.0001,95.6714,271.3736,88.7096,-4.1005e-05,-5.82e-06,0.0,0 STARLINK-5518,1 56469U 23064X   23319.50365637 -.00000582  00000-0 -41005-4 0  9999,2 56469  70.0001  95.6714 0002857 271.3736  88.7096 14.98332017 29493,6950.187,96.107,574.037,570.066,0.0
56469.0,STARLINK-5518,PAYLOAD,2023-11-15 15:17:31,14.98334151,0.0002736,70.0,95.3343,268.6,91.4845,-1.1195e-05,-2.27e-06,0.0,0 STARLINK-5518,1 56469U 23064X   23319.63717391 -.00000227  00000-0 -11195-4 0  9994,2 56469  70.0000  95.3343 0002736 268.6000  91.4845 14.98334151 29153,6950.18,96.107,573.947,570.143,0.0
56469.0,STARLINK-5518,PAYLOAD,2023-11-17 02:32:29,14.98326634,0.0003232,69.9985,91.6296,268.1172,91.9617,-6.4782e-05,-8.66e-06,0.0,0 STARLINK-5518,1 56469U 23064X   23321.10590239 -.00000866  00000-0 -64782-4 0  9998,2 56469  69.9985  91.6296 0003232 268.1172  91.9617 14.98326634 29738,6950.203,96.107,574.315,569.822,0.0
56469.0,STARLINK-5518,PAYLOAD,2023-11-17 12:09:17,14.98331358,0.0003045,70.0003,90.6218,271.1101,88.9709,2.6145e-05,2.19e-06,0.0,0 STARLINK-5518,1 56469U 23064X   23321.50645768  .00000219  00000-0  26145-4 0  9991,2 56469  70.0003  90.6218 0003045 271.1101  88.9709 14.98331358 29796,6950.189,96.107,574.17,569.937,0.0
56469.0,STARLINK-5518,PAYLOAD,2023-11-17 15:21:33,14.98333635,0.0002956,69.9992,90.284,267.491,92.5911,5.3938e-05,5.51e-06,0.0,0 STARLINK-5518,1 56469U 23064X   23321.63997509  .00000551  00000-0  53938-4 0  9997,2 56469  69.9992  90.2840 0002956 267.4910  92.5911 14.98333635 29452,6950.182,96.107,574.101,569.992,0.0
56469.0,STARLINK-5518,PAYLOAD,2023-11-18 12:11:18,14.98333841,0.0003012,69.9991,88.0954,272.0279,88.0535,-2.1062e-05,-3.44e-06,0.0,0 STARLINK-5518,1 56469U 23064X   23322.50785830 -.00000344  00000-0 -21062-4 0  9991,2 56469  69.9991  88.0954 0003012 272.0279  88.0535 14.98333841 29941,6950.181,96.107,574.139,569.953,0.0
56469.0,STARLINK-5518,PAYLOAD,2023-11-18 15:23:35,14.98372798,0.0002989,69.9989,87.7584,275.257,84.8248,-0.00058292,-7.049e-05,0.0,0 STARLINK-5518,1 56469U 23064X   23322.64138349 -.00007049  00000-0 -58292-3 0  9996,2 56469  69.9989  87.7584 0002989 275.2570  84.8248 14.98372798 29965,6950.061,96.104,574.003,569.848,0.0
56469.0,STARLINK-5518,PAYLOAD,2023-11-19 12:13:19,14.98333228,0.0003,69.9994,85.5704,271.9405,88.141,-2.1237e-05,-3.46e-06,0.0,0 STARLINK-5518,1 56469U 23064X   23323.50925609 -.00000346  00000-0 -21237-4 0  9998,2 56469  69.9994  85.5704 0003000 271.9405  88.1410 14.98333228 30095,6950.183,96.107,574.133,569.963,0.0
56469.0,STARLINK-5518,PAYLOAD,2023-11-19 13:49:27,14.98333363,0.0002702,70.0005,85.4029,266.4433,93.6417,-1.6954e-05,-2.95e-06,0.0,0 STARLINK-5518,1 56469U 23064X   23323.57601508 -.00000295  00000-0 -16954-4 0  9997,2 56469  70.0005  85.4029 0002702 266.4433  93.6417 14.98333363 29746,6950.182,96.107,573.925,570.17,0.0
56469.0,STARLINK-5518,PAYLOAD,2023-11-19 18:37:51,14.98336402,0.0003053,69.9996,84.8974,272.2444,87.8366,1.4643e-05,8.2e-07,0.0,0 STARLINK-5518,1 56469U 23064X   23323.77629227  .00000082  00000-0  14643-4 0  9992,2 56469  69.9996  84.8974 0003053 272.2444  87.8366 14.98336402 29779,6950.173,96.107,574.16,569.916,0.0
56469.0,STARLINK-5518,PAYLOAD,2023-11-20 13:51:28,14.98336427,0.0002447,70.0004,82.8765,265.9273,94.1606,8.3409e-05,9.03e-06,0.0,0 STARLINK-5518,1 56469U 23064X   23324.57740828  .00000903  00000-0  83409-4 0  9990,2 56469  70.0004  82.8765 0002447 265.9273  94.1606 14.98336427 29891,6950.173,96.107,573.739,570.337,0.0
56469.0,STARLINK-5518,PAYLOAD,2023-11-20 17:03:44,14.9833116,0.0002437,70.0006,82.5401,261.0713,99.017,2.7943e-05,2.41e-06,0.0,0 STARLINK-5518,1 56469U 23064X   23324.71093285  .00000241  00000-0  27943-4 0  9990,2 56469  70.0006  82.5401 0002437 261.0713  99.0170 14.98331160 30275,6950.189,96.107,573.748,570.361,0.0
